sat10974
1 10974U 78067B   20046.87563628  .00000062  00000-0  41729-5 0  9992
2 10974  82.4847 326.9716 0017434   1.8588 358.2691 14.87342091231176
